TANAGER-1               
1 60507U 24149AR  26189.53816615  .00000289  00000+0  82059-5 0  9996
2 60507  97.2296 283.7105 0001668 153.0537 207.0799 15.43959935106336
